CCSDS_OMM_VERS = 2.0
CREATION_DATE  = 
ORIGINATOR     = 

OBJECT_NAME    = STARLINK-36730
OBJECT_ID      = 2026-034AA
CENTER_NAME    = EARTH
REF_FRAME      = TEME
TIME_SYSTEM    = UTC
MEAN_ELEMENT_THEORY = SGP/SGP4

EPOCH          = 2026-03-20T04:59:36.879936
MEAN_MOTION    = 15.81137152
ECCENTRICITY   = .0002119
INCLINATION    = 53.1583
RA_OF_ASC_NODE = 158.4294
ARG_OF_PERICENTER = 359.1238
MEAN_ANOMALY   = 0.9781

EPHEMERIS_TYPE = 0
CLASSIFICATION_TYPE = U
NORAD_CAT_ID   = 67874
ELEMENT_SET_NO = 999
REV_AT_EPOCH   = 560
BSTAR          = .20716491E-2
MEAN_MOTION_DOT = .434687E-2
MEAN_MOTION_DDOT = 0

CCSDS_OMM_VERS = 2.0
CREATION_DATE  = 
ORIGINATOR     = 

OBJECT_NAME    = STARLINK-36727
OBJECT_ID      = 2026-034AB
CENTER_NAME    = EARTH
REF_FRAME      = TEME
TIME_SYSTEM    = UTC
MEAN_ELEMENT_THEORY = SGP/SGP4

EPOCH          = 2026-03-20T00:25:24.985920
MEAN_MOTION    = 15.81053388
ECCENTRICITY   = .0003768
INCLINATION    = 53.1576
RA_OF_ASC_NODE = 159.3745
ARG_OF_PERICENTER = 87.3743
MEAN_ANOMALY   = 272.7711

EPHEMERIS_TYPE = 0
CLASSIFICATION_TYPE = U
NORAD_CAT_ID   = 67875
ELEMENT_SET_NO = 999
REV_AT_EPOCH   = 557
BSTAR          = .18421E-2
MEAN_MOTION_DOT = .382653E-2
MEAN_MOTION_DDOT = 0

CCSDS_OMM_VERS = 2.0
CREATION_DATE  = 
ORIGINATOR     = 

OBJECT_NAME    = STARLINK-36743
OBJECT_ID      = 2026-034AC
CENTER_NAME    = EARTH
REF_FRAME      = TEME
TIME_SYSTEM    = UTC
MEAN_ELEMENT_THEORY = SGP/SGP4

EPOCH          = 2026-03-19T12:16:02.872704
MEAN_MOTION    = 15.80911012
ECCENTRICITY   = .00013386
INCLINATION    = 53.1594
RA_OF_ASC_NODE = 161.9039
ARG_OF_PERICENTER = 67.3857
MEAN_ANOMALY   = 292.7308

EPHEMERIS_TYPE = 0
CLASSIFICATION_TYPE = U
NORAD_CAT_ID   = 67876
ELEMENT_SET_NO = 999
REV_AT_EPOCH   = 549
BSTAR          = .13773195E-2
MEAN_MOTION_DOT = .28065E-2
MEAN_MOTION_DDOT = 0

CCSDS_OMM_VERS = 2.0
CREATION_DATE  = 
ORIGINATOR     = 

OBJECT_NAME    = STARLINK-36784
OBJECT_ID      = 2026-034AD
CENTER_NAME    = EARTH
REF_FRAME      = TEME
TIME_SYSTEM    = UTC
MEAN_ELEMENT_THEORY = SGP/SGP4

EPOCH          = 2026-03-20T06:00:02.999808
MEAN_MOTION    = 15.72284283
ECCENTRICITY   = .00013192
INCLINATION    = 53.1596
RA_OF_ASC_NODE = 158.2579
ARG_OF_PERICENTER = 91.3154
MEAN_ANOMALY   = 128.9217

EPHEMERIS_TYPE = 0
CLASSIFICATION_TYPE = U
NORAD_CAT_ID   = 67877
ELEMENT_SET_NO = 999
REV_AT_EPOCH   = 555
BSTAR          = -.16089011E-1
MEAN_MOTION_DOT = -.1888623E-1
MEAN_MOTION_DDOT = 0

CCSDS_OMM_VERS = 2.0
CREATION_DATE  = 
ORIGINATOR     = 

OBJECT_NAME    = STARLINK-36689
OBJECT_ID      = 2026-034AE
CENTER_NAME    = EARTH
REF_FRAME      = TEME
TIME_SYSTEM    = UTC
MEAN_ELEMENT_THEORY = SGP/SGP4

EPOCH          = 2026-03-20T04:55:17.002560
MEAN_MOTION    = 15.81006412
ECCENTRICITY   = .00011279
INCLINATION    = 53.1588
RA_OF_ASC_NODE = 158.4095
ARG_OF_PERICENTER = 111.0097
MEAN_ANOMALY   = 249.1047

EPHEMERIS_TYPE = 0
CLASSIFICATION_TYPE = U
NORAD_CAT_ID   = 67878
ELEMENT_SET_NO = 999
REV_AT_EPOCH   = 560
BSTAR          = .13251723E-2
MEAN_MOTION_DOT = .270879E-2
MEAN_MOTION_DDOT = 0

CCSDS_OMM_VERS = 2.0
CREATION_DATE  = 
ORIGINATOR     = 

OBJECT_NAME    = STARLINK-36818
OBJECT_ID      = 2026-035A
CENTER_NAME    = EARTH
REF_FRAME      = TEME
TIME_SYSTEM    = UTC
MEAN_ELEMENT_THEORY = SGP/SGP4

EPOCH          = 2026-03-19T19:11:06.907200
MEAN_MOTION    = 15.75234420
ECCENTRICITY   = .00018171
INCLINATION    = 97.2873
RA_OF_ASC_NODE = 11.6752
ARG_OF_PERICENTER = 123.9865
MEAN_ANOMALY   = 236.1573

EPHEMERIS_TYPE = 0
CLASSIFICATION_TYPE = U
NORAD_CAT_ID   = 67879
ELEMENT_SET_NO = 999
REV_AT_EPOCH   = 543
BSTAR          = .12157046E-2
MEAN_MOTION_DOT = .185553E-2
MEAN_MOTION_DDOT = 0

CCSDS_OMM_VERS = 2.0
CREATION_DATE  = 
ORIGINATOR     = 

OBJECT_NAME    = STARLINK-36821
OBJECT_ID      = 2026-035B
CENTER_NAME    = EARTH
REF_FRAME      = TEME
TIME_SYSTEM    = UTC
MEAN_ELEMENT_THEORY = SGP/SGP4

EPOCH          = 2026-03-20T05:47:23.121312
MEAN_MOTION    = 15.75269340
ECCENTRICITY   = .00011932
INCLINATION    = 97.2874
RA_OF_ASC_NODE = 12.1459
ARG_OF_PERICENTER = 31.0916
MEAN_ANOMALY   = 329.0420

EPHEMERIS_TYPE = 0
CLASSIFICATION_TYPE = U
NORAD_CAT_ID   = 67880
ELEMENT_SET_NO = 999
REV_AT_EPOCH   = 550
BSTAR          = .13700408E-2
MEAN_MOTION_DOT = .210045E-2
MEAN_MOTION_DDOT = 0

CCSDS_OMM_VERS = 2.0
CREATION_DATE  = 
ORIGINATOR     = 

OBJECT_NAME    = STARLINK-36808
OBJECT_ID      = 2026-035C
CENTER_NAME    = EARTH
REF_FRAME      = TEME
TIME_SYSTEM    = UTC
MEAN_ELEMENT_THEORY = SGP/SGP4

EPOCH          = 2026-03-20T06:50:53.452032
MEAN_MOTION    = 15.80987300
ECCENTRICITY   = .00011444
INCLINATION    = 97.2884
RA_OF_ASC_NODE = 12.2376
ARG_OF_PERICENTER = 77.0282
MEAN_ANOMALY   = 283.1114

EPHEMERIS_TYPE = 0
CLASSIFICATION_TYPE = U
NORAD_CAT_ID   = 67881
ELEMENT_SET_NO = 999
REV_AT_EPOCH   = 551
BSTAR          = .19592629E-2
MEAN_MOTION_DOT = .395779E-2
MEAN_MOTION_DDOT = 0

CCSDS_OMM_VERS = 2.0
CREATION_DATE  = 
ORIGINATOR     = 

OBJECT_NAME    = STARLINK-36817
OBJECT_ID      = 2026-035D
CENTER_NAME    = EARTH
REF_FRAME      = TEME
TIME_SYSTEM    = UTC
MEAN_ELEMENT_THEORY = SGP/SGP4

EPOCH          = 2026-03-20T06:00:02.999808
MEAN_MOTION    = 15.75187879
ECCENTRICITY   = .00015851
INCLINATION    = 97.2861
RA_OF_ASC_NODE = 12.2013
ARG_OF_PERICENTER = 100.1335
MEAN_ANOMALY   = 57.7589

EPHEMERIS_TYPE = 0
CLASSIFICATION_TYPE = U
NORAD_CAT_ID   = 67882
ELEMENT_SET_NO = 999
REV_AT_EPOCH   = 545
BSTAR          = .10425769E-3
MEAN_MOTION_DOT = .15448E-3
MEAN_MOTION_DDOT = 0

CCSDS_OMM_VERS = 2.0
CREATION_DATE  = 
ORIGINATOR     = 

OBJECT_NAME    = STARLINK-36856
OBJECT_ID      = 2026-035E
CENTER_NAME    = EARTH
REF_FRAME      = TEME
TIME_SYSTEM    = UTC
MEAN_ELEMENT_THEORY = SGP/SGP4

EPOCH          = 2026-03-20T06:00:02.999808
MEAN_MOTION    = 15.75233128
ECCENTRICITY   = .00013387
INCLINATION    = 97.2859
RA_OF_ASC_NODE = 12.1957
ARG_OF_PERICENTER = 91.4146
MEAN_ANOMALY   = 50.4485

EPHEMERIS_TYPE = 0
CLASSIFICATION_TYPE = U
NORAD_CAT_ID   = 67883
ELEMENT_SET_NO = 999
REV_AT_EPOCH   = 545
BSTAR          = -.23066321E-3
MEAN_MOTION_DOT = -.3446E-3
MEAN_MOTION_DDOT = 0

CCSDS_OMM_VERS = 2.0
CREATION_DATE  = 
ORIGINATOR     = 

OBJECT_NAME    = STARLINK-36842
OBJECT_ID      = 2026-035F
CENTER_NAME    = EARTH
REF_FRAME      = TEME
TIME_SYSTEM    = UTC
MEAN_ELEMENT_THEORY = SGP/SGP4

EPOCH          = 2026-03-20T05:43:20.423712
MEAN_MOTION    = 15.75276106
ECCENTRICITY   = .0000422
INCLINATION    = 97.2877
RA_OF_ASC_NODE = 12.1501
ARG_OF_PERICENTER = 59.4940
MEAN_ANOMALY   = 300.6367

EPHEMERIS_TYPE = 0
CLASSIFICATION_TYPE = U
NORAD_CAT_ID   = 67884
ELEMENT_SET_NO = 999
REV_AT_EPOCH   = 550
BSTAR          = .14576762E-2
MEAN_MOTION_DOT = .223927E-2
MEAN_MOTION_DDOT = 0

CCSDS_OMM_VERS = 2.0
CREATION_DATE  = 
ORIGINATOR     = 

OBJECT_NAME    = STARLINK-36826
OBJECT_ID      = 2026-035G
CENTER_NAME    = EARTH
REF_FRAME      = TEME
TIME_SYSTEM    = UTC
MEAN_ELEMENT_THEORY = SGP/SGP4

EPOCH          = 2026-03-20T06:00:02.999808
MEAN_MOTION    = 15.75173019
ECCENTRICITY   = .00014014
INCLINATION    = 97.2869
RA_OF_ASC_NODE = 12.1822
ARG_OF_PERICENTER = 101.3926
MEAN_ANOMALY   = 14.4872

EPHEMERIS_TYPE = 0
CLASSIFICATION_TYPE = U
NORAD_CAT_ID   = 67885
ELEMENT_SET_NO = 999
REV_AT_EPOCH   = 545
BSTAR          = .39748226E-3
MEAN_MOTION_DOT = .59528E-3
MEAN_MOTION_DDOT = 0

