STARLINK-36730          
1 67874U 26034AA  26079.20806574  .00434687  00000+0  20716-2 0  9992
2 67874  53.1583 158.4294 0002119 359.1238   0.9781 15.81137152  5606
STARLINK-36727          
1 67875U 26034AB  26079.01765030  .00382653  00000+0  18421-2 0  9998
2 67875  53.1576 159.3745 0003768  87.3743 272.7711 15.81053388  5578
STARLINK-36743          
1 67876U 26034AC  26078.51114436  .00280650  00000+0  13773-2 0  9990
2 67876  53.1594 161.9039 0001338  67.3857 292.7308 15.80911012  5490
STARLINK-36784          
1 67877U 26034AD  26079.25003472 -.01888623  00000+0 -16089-1 0  9999
2 67877  53.1596 158.2579 0001319  91.3154 128.9217 15.72284283  5557
STARLINK-36689          
1 67878U 26034AE  26079.20505790  .00270879  00000+0  13252-2 0  9990
2 67878  53.1588 158.4095 0001127 111.0097 249.1047 15.81006412  5606
STARLINK-36818          
1 67879U 26035A   26078.79938550  .00185553  00000+0  12157-2 0  9996
2 67879  97.2873  11.6752 0001817 123.9865 236.1573 15.75234420  5430
STARLINK-36821          
1 67880U 26035B   26079.24123983  .00210045  00000+0  13700-2 0  9995
2 67880  97.2874  12.1459 0001193  31.0916 329.0420 15.75269340  5506
STARLINK-36808          
1 67881U 26035C   26079.28534088  .00395779  00000+0  19593-2 0  9996
2 67881  97.2884  12.2376 0001144  77.0282 283.1114 15.80987300  5519
STARLINK-36817          
1 67882U 26035D   26079.25003472  .00015448  00000+0  10426-3 0  9991
2 67882  97.2861  12.2013 0001585 100.1335  57.7589 15.75187879  5450
STARLINK-36856          
1 67883U 26035E   26079.25003472 -.00034460  00000+0 -23066-3 0  9993
2 67883  97.2859  12.1957 0001338  91.4146  50.4485 15.75233128  5456
STARLINK-36842          
1 67884U 26035F   26079.23843083  .00223927  00000+0  14577-2 0  9994
2 67884  97.2877  12.1501 0000422  59.4940 300.6367 15.75276106  5509
STARLINK-36826          
1 67885U 26035G   26079.25003472  .00059528  00000+0  39748-3 0  9999
2 67885  97.2869  12.1822 0001401 101.3926  14.4872 15.75173019  5450
